CZ-10B DEB              
1 69973U 26158B   26194.58513205  .00000099  00000+0  11013-3 0  9993
2 69973  49.9846 287.2193 0005701 305.8104  54.2279 14.24885997   479
CZ-10B R/B              
1 69974U 26158C   26194.56253036  .00000143  00000+0  55130-4 0  9994
2 69974  49.9631 286.3519 0197944 194.8878 164.6170 14.64293949   480
STARLINK-38024          
1 69975U 26159A   26197.83335647 -.01935136  10288-2 -58176-2 0  9993
2 69975  97.2859  36.5658 0001466  92.9834 137.8055 15.92384162  2117
STARLINK-37993          
1 69976U 26159B   26197.83335647 -.01908445  10042-2 -56836-2 0  9996
2 69976  97.2856  36.5663 0001485  91.2908 140.9092 15.92563386  2119
STARLINK-37995          
1 69977U 26159C   26197.83335647 -.01873727  97192-3 -55305-2 0  9993
2 69977  97.2855  36.5670 0001447  89.5265 144.1582 15.92732446  2116
STARLINK-38057          
1 69978U 26159D   26197.83335647 -.01868289  96847-3 -54624-2 0  9990
2 69978  97.2857  36.5674 0001451  86.5580 148.7186 15.92914716  2117
STARLINK-38063          
1 69979U 26159E   26197.83335647 -.01854258  95666-3 -53711-2 0  9996
2 69979  97.2857  36.5682 0001446  87.8609 149.0393 15.93092514  2115
STARLINK-38093          
1 69980U 26159F   26197.83335647 -.01836195  94097-3 -52711-2 0  9994
2 69980  97.2857  36.5687 0001415  91.5305 147.0216 15.93263360  2114
STARLINK-38050          
1 69981U 26159G   26197.83335647 -.01830929  93763-3 -52083-2 0  9995
2 69981  97.2855  36.5693 0001443  91.0252 149.0488 15.93437378  2112
STARLINK-38065          
1 69982U 26159H   26197.83335647 -.01798734  90853-3 -50741-2 0  9999
2 69982  97.2856  36.5701 0001488  89.3361 152.3288 15.93593481  2117
STARLINK-38077          
1 69983U 26159J   26197.83335647 -.01780353  89277-3 -49794-2 0  9992
2 69983  97.2857  36.5708 0001405  91.1689 152.0487 15.93755002  2116
STARLINK-38068          
1 69984U 26159K   26197.83335647 -.01769781  88434-3 -49090-2 0  9998
2 69984  97.2855  36.5712 0001397  91.2099 153.3898 15.93911760  2111
STARLINK-38089          
1 69985U 26159L   26197.83335647 -.01752910  87013-3 -48210-2 0  9990
2 69985  97.2856  36.5720 0001404  89.9299 156.2637 15.94071850  2118
STARLINK-38073          
1 69986U 26159M   26197.83335647 -.01747791  86682-3 -47672-2 0  9994
2 69986  97.2856  36.5724 0001382  89.2963 158.3715 15.94228919  2119
STARLINK-38099          
1 69987U 26159N   26197.83335647 -.01735517  85686-3 -46958-2 0  9997
2 69987  97.2856  36.5729 0001362  86.1793 162.8867 15.94379839  2116
STARLINK-38064          
1 69988U 26159P   26197.83335647 -.01722758  84790-3 -45855-2 0  9991
2 69988  97.2854  36.5746 0001377  83.5746 168.4274 15.94688369  2114
STARLINK-38080          
1 69989U 26159Q   26197.83335647 -.01736406  85912-3 -46588-2 0  9998
2 69989  97.2853  36.5743 0001437  81.4067 169.1551 15.94539462  2116
STARLINK-38070          
1 69990U 26159R   26197.83335647 -.01706359  83419-3 -45065-2 0  9993
2 69990  97.2852  36.5754 0001306  85.1631 168.3428 15.94833842  2115
STARLINK-38042          
1 69991U 26159S   26197.83335647 -.01690433  82091-3 -44322-2 0  9999
2 69991  97.2852  36.5758 0001351  87.7022 167.0818 15.94968072  2115
STARLINK-38071          
1 69992U 26159T   26197.83335647 -.01682016  81454-3 -43766-2 0  9991
2 69992  97.2852  36.5765 0001374  84.6146 171.4870 15.95110545  2114
STARLINK-38082          
1 69993U 26159U   26197.83335647 -.01650519  78743-3 -42650-2 0  9993
2 69993  97.2852  36.5770 0001299  85.9225 171.5199 15.95236605  2110
STARLINK-38090          
1 69994U 26159V   26197.83335647 -.01660793  79784-3 -42577-2 0  9993
2 69994  97.2853  36.5776 0001354  91.2350 167.5726 15.95386493  2111
STARLINK-38084          
1 69995U 26159W   26197.83335647 -.01631827  77322-3 -41535-2 0  9999
2 69995  97.2853  36.5783 0001300  82.6089 177.6715 15.95516940  2116
STARLINK-38085          
1 69996U 26159X   26197.83335647 -.01617116  76133-3 -40879-2 0  9994
2 69996  97.2852  36.5790 0001249  90.4708 171.0627 15.95643579  2110
STARLINK-38091          
1 69997U 26159Y   26197.83335647 -.01614392  76006-3 -40508-2 0  9996
2 69997  97.2852  36.5793 0001331  82.3967 180.5689 15.95781755  2115
STARLINK-38086          
1 69998U 26159Z   26197.83335647 -.01597881  74670-3 -39814-2 0  9993
2 69998  97.2853  36.5800 0001237  93.3696 170.9261 15.95910086  2112
