OBJECT_NAME,OBJECT_ID,EPOCH,MEAN_MOTION,ECCENTRICITY,INCLINATION,RA_OF_ASC_NODE,ARG_OF_PERICENTER,MEAN_ANOMALY,EPHEMERIS_TYPE,CLASSIFICATION_TYPE,NORAD_CAT_ID,ELEMENT_SET_NO,REV_AT_EPOCH,BSTAR,MEAN_MOTION_DOT,MEAN_MOTION_DDOT
CZ-10B DEB,2026-158B,2026-07-13T14:02:35.409120,14.24885997,.0005701,49.9846,287.2193,305.8104,54.2279,0,U,69973,999,47,.11013E-3,.99E-6,0
CZ-10B R/B,2026-158C,2026-07-13T13:30:02.623104,14.64293949,.01979448,49.9631,286.3519,194.8878,164.6170,0,U,69974,999,48,.55130296E-4,.143E-5,0
STARLINK-38024,2026-159A,2026-07-16T20:00:01.999008,15.92384162,.0001466,97.2859,36.5658,92.9834,137.8055,0,U,69975,999,211,-.58176E-2,-.1935136E-1,.10288E-2
STARLINK-37993,2026-159B,2026-07-16T20:00:01.999008,15.92563386,.0001485,97.2856,36.5663,91.2908,140.9092,0,U,69976,999,211,-.56836E-2,-.1908445E-1,.10042E-2
STARLINK-37995,2026-159C,2026-07-16T20:00:01.999008,15.92732446,.0001447,97.2855,36.5670,89.5265,144.1582,0,U,69977,999,211,-.55305E-2,-.1873727E-1,.97192E-3
STARLINK-38057,2026-159D,2026-07-16T20:00:01.999008,15.92914716,.0001451,97.2857,36.5674,86.5580,148.7186,0,U,69978,999,211,-.54624E-2,-.1868289E-1,.96847E-3
STARLINK-38063,2026-159E,2026-07-16T20:00:01.999008,15.93092514,.0001446,97.2857,36.5682,87.8609,149.0393,0,U,69979,999,211,-.53711E-2,-.1854258E-1,.95666E-3
STARLINK-38093,2026-159F,2026-07-16T20:00:01.999008,15.93263360,.0001415,97.2857,36.5687,91.5305,147.0216,0,U,69980,999,211,-.52711E-2,-.1836195E-1,.94097E-3
STARLINK-38050,2026-159G,2026-07-16T20:00:01.999008,15.93437378,.0001443,97.2855,36.5693,91.0252,149.0488,0,U,69981,999,211,-.52083E-2,-.1830929E-1,.93763E-3
STARLINK-38065,2026-159H,2026-07-16T20:00:01.999008,15.93593481,.0001488,97.2856,36.5701,89.3361,152.3288,0,U,69982,999,211,-.50741E-2,-.1798734E-1,.90853E-3
STARLINK-38077,2026-159J,2026-07-16T20:00:01.999008,15.93755002,.0001405,97.2857,36.5708,91.1689,152.0487,0,U,69983,999,211,-.49794E-2,-.1780353E-1,.89277E-3
STARLINK-38068,2026-159K,2026-07-16T20:00:01.999008,15.93911760,.0001397,97.2855,36.5712,91.2099,153.3898,0,U,69984,999,211,-.4909E-2,-.1769781E-1,.88434E-3
STARLINK-38089,2026-159L,2026-07-16T20:00:01.999008,15.94071850,.0001404,97.2856,36.5720,89.9299,156.2637,0,U,69985,999,211,-.4821E-2,-.175291E-1,.87013E-3
STARLINK-38073,2026-159M,2026-07-16T20:00:01.999008,15.94228919,.0001382,97.2856,36.5724,89.2963,158.3715,0,U,69986,999,211,-.47672E-2,-.1747791E-1,.86682E-3
STARLINK-38099,2026-159N,2026-07-16T20:00:01.999008,15.94379839,.0001362,97.2856,36.5729,86.1793,162.8867,0,U,69987,999,211,-.46958E-2,-.1735517E-1,.85686E-3
STARLINK-38064,2026-159P,2026-07-16T20:00:01.999008,15.94688369,.0001377,97.2854,36.5746,83.5746,168.4274,0,U,69988,999,211,-.45855E-2,-.1722758E-1,.8479E-3
STARLINK-38080,2026-159Q,2026-07-16T20:00:01.999008,15.94539462,.0001437,97.2853,36.5743,81.4067,169.1551,0,U,69989,999,211,-.46588E-2,-.1736406E-1,.85912E-3
STARLINK-38070,2026-159R,2026-07-16T20:00:01.999008,15.94833842,.0001306,97.2852,36.5754,85.1631,168.3428,0,U,69990,999,211,-.45065E-2,-.1706359E-1,.83419E-3
STARLINK-38042,2026-159S,2026-07-16T20:00:01.999008,15.94968072,.0001351,97.2852,36.5758,87.7022,167.0818,0,U,69991,999,211,-.44322E-2,-.1690433E-1,.82091E-3
STARLINK-38071,2026-159T,2026-07-16T20:00:01.999008,15.95110545,.0001374,97.2852,36.5765,84.6146,171.4870,0,U,69992,999,211,-.43766E-2,-.1682016E-1,.81454E-3
STARLINK-38082,2026-159U,2026-07-16T20:00:01.999008,15.95236605,.0001299,97.2852,36.5770,85.9225,171.5199,0,U,69993,999,211,-.4265E-2,-.1650519E-1,.78743E-3
STARLINK-38090,2026-159V,2026-07-16T20:00:01.999008,15.95386493,.0001354,97.2853,36.5776,91.2350,167.5726,0,U,69994,999,211,-.42577E-2,-.1660793E-1,.79784E-3
STARLINK-38084,2026-159W,2026-07-16T20:00:01.999008,15.95516940,.00013,97.2853,36.5783,82.6089,177.6715,0,U,69995,999,211,-.41535E-2,-.1631827E-1,.77322E-3
STARLINK-38085,2026-159X,2026-07-16T20:00:01.999008,15.95643579,.0001249,97.2852,36.5790,90.4708,171.0627,0,U,69996,999,211,-.40879E-2,-.1617116E-1,.76133E-3
STARLINK-38091,2026-159Y,2026-07-16T20:00:01.999008,15.95781755,.0001331,97.2852,36.5793,82.3967,180.5689,0,U,69997,999,211,-.40508E-2,-.1614392E-1,.76006E-3
STARLINK-38086,2026-159Z,2026-07-16T20:00:01.999008,15.95910086,.0001237,97.2853,36.5800,93.3696,170.9261,0,U,69998,999,211,-.39814E-2,-.1597881E-1,.7467E-3
